network_code,receiver_code,receiver_type,receiver_latitude,receiver_longitude,receiver_elevation_m,p_arrival_sample,p_status,p_weight,p_travel_sec,s_arrival_sample,s_status,s_weight,source_id,source_origin_time,source_origin_uncertainty_sec,source_latitude,source_longitude,source_error_sec,source_gap_deg,source_horizontal_uncertainty_km,source_depth_km,source_depth_uncertainty_km,source_magnitude,source_magnitude_type,source_magnitude_author,source_mechanism_strike_dip_rake,source_distance_deg,source_distance_km,back_azimuth_deg,snr_db,coda_end_sample,trace_start_time,trace_category,trace_name
SC,PDB,BH,32.0722,-103.59662,1025,700,manual,0.06,45.12,2193.000033372082,manual,0.16,NA,NA,0.25,31.735333333333333,104.096,NA,116,NA,5,NA,2.31,ml,None,None,NA,59.4,231,3.760460171025346,5500,NA,earthquake_local,PDB.SC_20200902221700_EV
SC,PDB,BH,32.0722,-103.59662,1025,700,manual,0.04,89.07,2067.000030554831,manual,0.21,NA,NA,0.5,31.729333333333333,104.08566666666667,NA,116,NA,5,NA,2.23,ml,None,None,NA,59,230,0.32544987680564375,5500,NA,earthquake_local,PDB.SC_20200902230600_EV
TX,PECS,BH,31.370449,-103.866966,914,700,manual,0.38,79.54,1873.0000262185931,manual,0.61,NA,NA,0.25,31.701833333333333,103.993,NA,191,NA,5,NA,1.85,ml,None,None,NA,38.8,341,3.6970227046088597,5500,NA,earthquake_local,PECS.TX_20200901013100_EV
TX,PECS,BH,31.370449,-103.866966,914,700,manual,0.37,55.91,1859.0000259056687,manual,0.63,NA,NA,0.25,31.6535,104.05766666666666,NA,175,NA,5,NA,1.64,ml,None,None,NA,36.3,330,2.3935485999717745,5500,NA,earthquake_local,PECS.TX_20200901013500_EV
TX,PECS,BH,31.370449,-103.866966,914,700,manual,0.35,90.6,1858.000025883317,manual,0.53,NA,NA,0.25,31.572666666666667,104.22016666666667,NA,153,NA,5,NA,2.03,ml,None,None,NA,40.2,304,5.33741651394653,5500,NA,earthquake_local,PECS.TX_20200901023700_EV
TX,PECS,BH,31.370449,-103.866966,914,700,manual,0.22,34.83,1678.0000218600035,manual,0.38,NA,NA,0.5,31.5965,104.12483333333333,NA,139,NA,5,NA,2.21,ml,None,None,NA,35.1,316,12.793303814687466,5500,NA,earthquake_local,PECS.TX_20200901032600_EV
TX,PECS,BH,31.370449,-103.866966,914,700,manual,0.34,51.36,2013.000029347837,manual,0.62,NA,NA,0.25,31.748833333333334,104.29816666666666,NA,143,NA,5,NA,1.85,ml,None,None,NA,58.6,316,9.888534436447804,5500,NA,earthquake_local,PECS.TX_20200901040500_EV
TX,PECS,BH,31.370449,-103.866966,914,700,manual,0.2,70.6,1952.0000279843807,manual,0.34,NA,NA,0.25,31.749333333333333,104.08533333333334,NA,113,NA,5,NA,2.17,ml,None,None,NA,47,333,12.132593332509405,5500,NA,earthquake_local,PECS.TX_20200901060500_EV
TX,PECS,BH,31.370449,-103.866966,914,700,manual,0.43,83.59,2056.000030308962,manual,0.56,NA,NA,0.25,31.216,103.33833333333334,NA,213,NA,5,NA,1.66,ml,None,None,NA,52.7,109,6.131821118439876,5500,NA,earthquake_local,PECS.TX_20200901064900_EV
TX,PECS,BH,31.370449,-103.866966,914,700,manual,0.45,39.96,1817.0000249673612,manual,0.75,NA,NA,0.25,31.599166666666665,104.17616666666666,NA,204,NA,5,NA,1.97,ml,None,None,NA,38.8,311,6.45652095294412,5500,NA,earthquake_local,PECS.TX_20200901073300_EV
TX,PECS,BH,31.370449,-103.866966,914,700,manual,0.22,45.41,2106.0000314270146,manual,0.37,NA,NA,0.25,31.615,104.29433333333333,NA,151,NA,5,NA,2.36,ml,None,None,NA,48.7,304,12.788230790138241,5500,NA,earthquake_local,PECS.TX_20200901074800_EV
TX,PECS,BH,31.370449,-103.866966,914,700,manual,0.36,72.58,2120.0000317390077,manual,0.63,NA,NA,0.25,31.622166666666665,104.29533333333333,NA,150,NA,5,NA,2.29,ml,None,None,NA,49.2,305,7.795755407508888,5500,NA,earthquake_local,PECS.TX_20200901075300_EV
TX,PECS,BH,31.370449,-103.866966,914,700,manual,0.22,27.64,1969.000028364826,manual,0.38,NA,NA,0.25,31.755166666666668,104.05983333333333,NA,110,NA,5,NA,1.8,ml,None,None,NA,46.6,336,12.707514197737535,5500,NA,earthquake_local,PECS.TX_20200901095900_EV
TX,PECS,BH,31.370449,-103.866966,914,700,manual,0.24,43.32,1948.0000278949738,manual,0.41,NA,NA,0.25,31.7275,104.1175,NA,119,NA,5,NA,2.2,ml,None,None,NA,46.3,329,8.846998315767353,5500,NA,earthquake_local,PECS.TX_20200901103700_EV
TX,PECS,BH,31.370449,-103.866966,914,700,manual,0.52,43.56,1922.0000273147598,manual,0.45,NA,NA,0.25,31.6795,104.16033333333333,NA,159,NA,5,NA,1.71,ml,None,None,NA,44.2,321,16.11778026815664,5500,NA,earthquake_local,PECS.TX_20200901115800_EV
TX,PECS,BH,31.370449,-103.866966,914,700,manual,0.26,49.66,1953.0000280067325,manual,0.44,NA,NA,0.25,31.66433333333333,104.18716666666667,NA,134,NA,5,NA,2.13,ml,None,None,NA,44.6,317,5.544843533712419,5500,NA,earthquake_local,PECS.TX_20200901131900_EV
TX,PECS,BH,31.370449,-103.866966,914,700,manual,0.33,67.41,2264.000034958124,manual,0.62,NA,NA,0.25,31.729,104.53916666666667,NA,145,NA,5,NA,1.99,ml,None,None,NA,74.9,302,-0.43197321009002265,5500,NA,earthquake_local,PECS.TX_20200901135800_EV
TX,PECS,BH,31.370449,-103.866966,914,700,manual,0.46,60.18,2221.0000339969993,manual,0.82,NA,NA,0.5,32.0035,103.71866666666666,NA,244,NA,5,NA,1.67,ml,None,None,NA,71.4,10,-1.732379751286184,5500,NA,earthquake_local,PECS.TX_20200901151500_EV
TX,PECS,BH,31.370449,-103.866966,914,700,manual,0.35,37.03,2108.0000314721838,manual,0.62,NA,NA,0.25,31.691333333333333,104.22283333333333,NA,150,NA,5,NA,1.76,ml,None,None,NA,49.1,316,2.1609007753693192,5500,NA,earthquake_local,PECS.TX_20200901154500_EV
TX,PECS,BH,31.370449,-103.866966,914,700,manual,0.18,59.7,2242.000034466386,manual,0.3,NA,NA,0.25,31.642333333333333,104.4815,NA,156,NA,5,NA,2.01,ml,None,None,NA,65.3,297,18.763232579220496,5500,NA,earthquake_local,PECS.TX_20200901185100_EV
TX,PECS,BH,31.370449,-103.866966,914,700,manual,0.35,56.25,2237.000034354627,manual,0.62,NA,NA,0.25,31.66583333333333,104.45166666666667,NA,151,NA,5,NA,2.07,ml,None,None,NA,64.2,301,2.7613066931790256,5500,NA,earthquake_local,PECS.TX_20200901195100_EV
TX,PECS,BH,31.370449,-103.866966,914,700,manual,0.33,84.32,2297.000035693869,manual,0.62,NA,NA,0.25,31.74266666666667,104.51666666666667,NA,142,NA,5,NA,1.94,ml,None,None,NA,74,304,6.816095278048838,5500,NA,earthquake_local,PECS.TX_20200901225800_EV
TX,PECS,BH,31.370449,-103.866966,914,700,manual,0.33,92.32,1966.0000282963738,manual,0.61,NA,NA,0.25,31.701166666666666,104.31766666666667,NA,139,NA,5,NA,2.19,ml,None,None,NA,56.3,311,8.27236567074044,5500,NA,earthquake_local,PECS.TX_20200901230400_EV
TX,PECS,BH,31.370449,-103.866966,914,700,manual,0.2,81.8,2124.0000318270177,manual,0.17,NA,NA,0.25,31.728666666666665,104.38766666666666,NA,139,NA,5,NA,2.13,ml,None,None,NA,63.3,309,8.402925430254921,5500,NA,earthquake_local,PECS.TX_20200901234300_EV
TX,PECS,BH,31.370449,-103.866966,914,700,manual,0.24,46.17,2278.0000352709903,manual,0.43,NA,NA,0.25,31.721166666666665,104.40516666666667,NA,141,NA,5,NA,2.2,ml,None,None,NA,64.1,307,5.280350744598657,5500,NA,earthquake_local,PECS.TX_20200902005900_EV
TX,PECS,BH,31.370449,-103.866966,914,700,manual,0.18,78.52,1930.0000274926424,manual,0.15,NA,NA,0.25,31.741,104.0895,NA,115,NA,5,NA,2.27,ml,None,None,NA,46.3,332,-1.2235244703869441,5500,NA,earthquake_local,PECS.TX_20200902013500_EV
TX,PECS,BH,31.370449,-103.866966,914,700,manual,0.34,20.54,1745.0000233574538,manual,0.61,NA,NA,0.5,31.621,104.14966666666666,NA,153,NA,5,NA,1.9,ml,None,None,NA,38.6,316,4.405922710390321,5500,NA,earthquake_local,PECS.TX_20200902023700_EV
TX,PECS,BH,31.370449,-103.866966,914,700,manual,0.21,50.67,1986.00002874434,manual,0.76,NA,NA,0.5,31.652333333333335,104.24366666666667,NA,142,NA,5,NA,1.97,ml,None,None,NA,47.5,311,8.620269278458267,5500,NA,earthquake_local,PECS.TX_20200902024600_EV
TX,PECS,BH,31.370449,-103.866966,914,700,manual,0.34,29.27,2203.0000335945515,manual,0.62,NA,NA,0.25,31.740833333333335,104.36416666666666,NA,136,NA,5,NA,2.24,ml,None,None,NA,62.5,311,8.094884653047753,5499.999999999884,NA,earthquake_local,PECS.TX_20200902025400_EV
TX,PECS,BH,31.370449,-103.866966,914,700,manual,0.34,51.58,2131.0000319853425,manual,0.62,NA,NA,0.25,31.7045,104.32533333333333,NA,139,NA,5,NA,2.27,ml,None,None,NA,57.1,310,-0.3707269336315957,5500,NA,earthquake_local,PECS.TX_20200902032100_EV
TX,PECS,BH,31.370449,-103.866966,914,700,manual,0.45,62.46,2228.0000341534615,manual,0.6,NA,NA,0.25,31.9935,103.73,NA,242,NA,5,NA,1.75,ml,None,None,NA,70.1,10,7.421186072818324,5500,NA,earthquake_local,PECS.TX_20200902035400_EV
TX,PECS,BH,31.370449,-103.866966,914,700,manual,0.65,37.83,1940.0000277161598,manual,0.33,NA,NA,0.25,31.678,104.17466666666667,NA,165,NA,5,NA,1.92,ml,None,None,NA,45,319,3.623593453142266,5500,NA,earthquake_local,PECS.TX_20200902041800_EV
TX,PECS,BH,31.370449,-103.866966,914,700,manual,0.34,33.18,2392.000037819147,manual,0.62,NA,NA,0.25,31.676166666666667,104.52433333333333,NA,153,NA,5,NA,1.67,ml,None,None,NA,70.7,299,6.530462394532583,5500,NA,earthquake_local,PECS.TX_20200902042000_EV
TX,PECS,BH,31.370449,-103.866966,914,700,manual,0.18,43.6,1882.0000264197588,manual,0.31,NA,NA,0.25,31.750833333333333,104.086,NA,113,NA,5,NA,2.65,ml,None,None,NA,47.2,333,13.60641126311922,5500,NA,earthquake_local,PECS.TX_20200902051800_EV
TX,PECS,BH,31.370449,-103.866966,914,700,manual,0.21,77.53,1947.0000278728548,manual,0.34,NA,NA,0.25,31.671,104.21433333333333,NA,136,NA,5,NA,1.02,ml,None,None,NA,46.9,315,3.4637687839065787,5500,NA,earthquake_local,PECS.TX_20200902053800_EV
TX,PECS,BH,31.370449,-103.866966,914,700,manual,0.32,59.28,1931.0000275149941,manual,0.57,NA,NA,0.25,31.744333333333334,104.05483333333333,NA,131,NA,5,NA,1.95,ml,None,None,NA,45.3,336,5.140011650656653,5500,NA,earthquake_local,PECS.TX_20200902065600_EV
TX,PECS,BH,31.370449,-103.866966,914,700,manual,0.23,88.4,2039.0000299289823,manual,0.19,NA,NA,0.25,31.761,104.081,NA,112,NA,5,NA,2.46,ml,None,None,NA,48,335,1.5204876985598392,5500,NA,earthquake_local,PECS.TX_20200902070200_EV
TX,PECS,BH,31.370449,-103.866966,914,700,manual,0.47,47.52,1942.0000277608633,manual,0.41,NA,NA,0.25,31.6965,104.15066666666667,NA,126,NA,5,NA,1.7,ml,None,None,NA,45.2,323,5.677395524583045,5500,NA,earthquake_local,PECS.TX_20200902071900_EV
TX,PECS,BH,31.370449,-103.866966,914,700,manual,0.26,84.3,1755.0000235810876,manual,0.5,NA,NA,0.25,31.623,103.95183333333334,NA,110,NA,5,NA,1.41,ml,None,None,NA,29.2,343,11.288230449629154,5500,NA,earthquake_local,PECS.TX_20200902073500_EV
TX,PECS,BH,31.370449,-103.866966,914,700,manual,0.26,51.48,2131.0000319853425,manual,0.48,NA,NA,0.25,31.439333333333334,103.39216666666667,NA,159,NA,5,NA,2.31,ml,None,None,NA,45,80,10.120129755926202,5500,NA,earthquake_local,PECS.TX_20200902081200_EV
TX,PECS,BH,31.370449,-103.866966,914,700,manual,0.21,57.56,1850.000025704503,manual,0.74,NA,NA,0.5,31.670833333333334,104.46666666666667,NA,151,NA,5,NA,1.96,ml,None,None,NA,65.7,300,7.6362295918087595,5500,NA,earthquake_local,PECS.TX_20200902083000_EV
TX,PECS,BH,31.370449,-103.866966,914,700,manual,0.33,38.75,2090.000031068921,manual,0.59,NA,NA,0.5,31.704,104.525,NA,148,NA,5,NA,1.83,ml,None,None,NA,72.3,301,6.013918658687077,5500,NA,earthquake_local,PECS.TX_20200902083600_EV
TX,PECS,BH,31.370449,-103.866966,914,700,manual,0.35,26.25,2018.0000294595957,manual,0.64,NA,NA,0.5,31.7145,104.08366666666667,NA,141,NA,5,NA,1.11,ml,None,None,NA,43.5,331,11.024382853775009,5500,NA,earthquake_local,PECS.TX_20200902085800_EV
TX,PECS,BH,31.370449,-103.866966,914,700,manual,0.33,78.6,2032.00002977252,manual,0.58,NA,NA,0.25,31.758,104.05883333333334,NA,130,NA,5,NA,2.09,ml,None,None,NA,46.8,337,9.72990347571275,5500,NA,earthquake_local,PECS.TX_20200902095400_EV
TX,PECS,BH,31.370449,-103.866966,914,700,manual,0.24,80.17,2201.00003355043,manual,0.41,NA,NA,0.25,31.6895,104.39833333333333,NA,145,NA,5,NA,2.05,ml,None,None,NA,61.4,305,5.112104370952178,5500,NA,earthquake_local,PECS.TX_20200902101300_EV
TX,PECS,BH,31.370449,-103.866966,914,700,manual,0.35,83.23,2027.0000296607614,manual,0.62,NA,NA,0.25,31.675833333333333,104.2695,NA,140,NA,5,NA,1.96,ml,None,None,NA,51,312,5.7280781526297595,5500,NA,earthquake_local,PECS.TX_20200902103300_EV
TX,PECS,BH,31.370449,-103.866966,914,700,manual,0.32,26.01,1891.0000266209245,manual,0.58,NA,NA,0.25,31.6445,104.27433333333333,NA,145,NA,5,NA,2.18,ml,None,None,NA,49.1,308,1.6135397908821134,5500,NA,earthquake_local,PECS.TX_20200902121600_EV
TX,PECS,BH,31.370449,-103.866966,914,700,manual,0.2,65.83,1993.0000289008021,manual,0.36,NA,NA,0.25,31.752,104.08066666666667,NA,113,NA,5,NA,2.2,ml,None,None,NA,47.1,334,5.70136510995141,5500,NA,earthquake_local,PECS.TX_20200902131000_EV
TX,PECS,BH,31.370449,-103.866966,914,700,manual,0.36,20.92,1824.0000251233578,manual,0.32,NA,NA,0.25,31.764666666666667,104.04433333333333,NA,140,NA,5,NA,2.29,ml,None,None,NA,47,339,2.8632663020137756,5500,NA,earthquake_local,PECS.TX_20200902132600_EV
TX,PECS,BH,31.370449,-103.866966,914,700,manual,0.25,64.59,1936.0000276267529,manual,0.45,NA,NA,0.25,31.754666666666665,104.05233333333334,NA,109,NA,5,NA,1.95,ml,None,None,NA,46.2,337,-0.8087311320326256,5500,NA,earthquake_local,PECS.TX_20200902134900_EV
TX,PECS,BH,31.370449,-103.866966,914,700,manual,0.18,41.2,1959.000028140843,manual,0.3,NA,NA,0.25,31.749666666666666,104.08316666666667,NA,113,NA,5,NA,2.19,ml,None,None,NA,46.9,334,3.254816090734245,5500,NA,earthquake_local,PECS.TX_20200902140400_EV
TX,PECS,BH,31.370449,-103.866966,914,700,manual,0.17,27.17,2022.0000295490026,manual,0.28,NA,NA,0.25,31.768,104.10533333333333,NA,113,NA,5,NA,2.61,ml,None,None,NA,49.7,333,0.10034702361828865,5500,NA,earthquake_local,PECS.TX_20200902141300_EV
TX,PECS,BH,31.370449,-103.866966,914,700,manual,0.25,76.09,1922.0000273138285,manual,0.43,NA,NA,0.25,31.739,104.07433333333333,NA,113,NA,5,NA,2.08,ml,None,None,NA,45.5,334,0.11910139934295122,5500,NA,earthquake_local,PECS.TX_20200902160000_EV
TX,PECS,BH,31.370449,-103.866966,914,700,manual,0.43,79.05,2202.000033572316,manual,0.23,NA,NA,0.25,31.983666666666668,103.78783333333334,NA,142,NA,5,NA,2.11,ml,None,None,NA,68.3,5,5.324623319375005,5500,NA,earthquake_local,PECS.TX_20200902163100_EV
TX,PECS,BH,31.370449,-103.866966,914,700,manual,0.22,46.7,2144.0000322768465,manual,0.39,NA,NA,0.25,31.709833333333332,104.3605,NA,140,NA,5,NA,2.13,ml,None,None,NA,60,309,6.434979607607833,5500,NA,earthquake_local,PECS.TX_20200902165300_EV
TX,PECS,BH,31.370449,-103.866966,914,700,manual,0.34,58.31,2136.000032097101,manual,0.61,NA,NA,0.25,31.706666666666667,104.354,NA,140,NA,5,NA,2.04,ml,None,None,NA,59.3,309,4.652065018352397,5500,NA,earthquake_local,PECS.TX_20200902174900_EV
TX,PECS,BH,31.370449,-103.866966,914,700,manual,0.34,37.83,1897.000026755035,manual,0.61,NA,NA,0.25,31.618166666666667,104.20383333333334,NA,143,NA,5,NA,2.06,ml,None,None,NA,42.1,311,7.671763174334045,5500,NA,earthquake_local,PECS.TX_20200902180300_EV
TX,PECS,BH,31.370449,-103.866966,914,700,manual,0.36,50.13,1894.0000266879797,manual,0.62,NA,NA,0.25,31.625666666666667,104.1765,NA,149,NA,5,NA,2.03,ml,None,None,NA,40.8,314,8.606305543408952,5500,NA,earthquake_local,PECS.TX_20200902194200_EV
TX,PECS,BH,31.370449,-103.866966,914,700,manual,0.5,33.47,1761.000023715198,manual,0.23,NA,NA,0.25,31.629666666666665,103.928,NA,105,NA,5,NA,1.92,ml,None,None,NA,29.4,348,10.104933087645403,5500,NA,earthquake_local,PECS.TX_20200902213400_EV
TX,PECS,BH,31.370449,-103.866966,914,700,manual,0.34,84.39,2016.0000294148922,manual,0.56,NA,NA,0.5,31.776333333333334,104.029,NA,190,NA,5,NA,2.15,ml,None,None,NA,47.7,341,8.203771194344855,5500,NA,earthquake_local,PECS.TX_20200902214900_EV
TX,PECS,BH,31.370449,-103.866966,914,700,manual,0.16,67.58,1871.0000261729583,manual,0.85,NA,NA,0.25,31.632666666666665,104.1125,NA,162,NA,5,NA,2.02,ml,None,None,NA,37.3,321,13.662169473615357,5500,NA,earthquake_local,PECS.TX_20200902215400_EV
TX,PECS,BH,31.370449,-103.866966,914,700,manual,0.18,43.27,1837.0000254139304,manual,0.31,NA,NA,0.25,31.735333333333333,104.096,NA,116,NA,5,NA,2.31,ml,None,None,NA,46.1,331,8.581468281291203,5500,NA,earthquake_local,PECS.TX_20200902221700_EV
TX,PECS,BH,31.370449,-103.866966,914,700,manual,0.24,85.6,1824.0000251224265,manual,0.42,NA,NA,0.25,31.729333333333333,104.08566666666667,NA,116,NA,5,NA,2.23,ml,None,None,NA,45,332,16.13766506046193,5500,NA,earthquake_local,PECS.TX_20200902230600_EV
SC,SRH,BH,32.491798,-104.515404,1276,700,manual,0.11,55.59,2538.0000410822686,manual,0.21,NA,NA,0.25,31.748833333333334,104.29816666666666,NA,143,NA,5,NA,1.85,ml,None,None,NA,85.1,166,14.219537910274893,5500,NA,earthquake_local,SRH.SC_20200901040500_EV
SC,SRH,BH,32.491798,-104.515404,1276,700,manual,0.07,76.82,2468.0000395178795,manual,0.13,NA,NA,0.25,31.749333333333333,104.08533333333334,NA,113,NA,5,NA,2.17,ml,None,None,NA,92.1,153,17.545991453298992,5500,NA,earthquake_local,SRH.SC_20200901060500_EV
SC,SRH,BH,32.491798,-104.515404,1276,700,manual,0.18,50.27,2797.000046872068,manual,0.28,NA,NA,0.25,31.599166666666665,104.17616666666666,NA,204,NA,5,NA,1.97,ml,None,None,NA,104.3,162,12.22237994617344,5500,NA,earthquake_local,SRH.SC_20200901073300_EV
SC,SRH,BH,32.491798,-104.515404,1276,700,manual,0.07,53.22,2603.000042534899,manual,0.08,NA,NA,0.25,31.615,104.29433333333333,NA,151,NA,5,NA,2.36,ml,None,None,NA,99.7,167,23.29551201627477,5500,NA,earthquake_local,SRH.SC_20200901074800_EV
SC,SRH,BH,32.491798,-104.515404,1276,700,manual,0.04,36.12,2340.000036656391,manual,0.07,NA,NA,0.5,31.755166666666668,104.05983333333333,NA,110,NA,5,NA,1.8,ml,None,None,NA,92.6,152,9.525140700896856,5500,NA,earthquake_local,SRH.SC_20200901095900_EV
SC,SRH,BH,32.491798,-104.515404,1276,700,manual,0.07,51.07,2425.0000385567546,manual,0.12,NA,NA,0.25,31.7275,104.1175,NA,119,NA,5,NA,2.2,ml,None,None,NA,93,156,18.121027775164805,5500,NA,earthquake_local,SRH.SC_20200901103700_EV
SC,SRH,BH,32.491798,-104.515404,1276,700,manual,0.04,57.16,2532.000040948391,manual,0.07,NA,NA,0.5,31.66433333333333,104.18716666666667,NA,134,NA,5,NA,2.13,ml,None,None,NA,97.1,161,21.82598790309019,5500,NA,earthquake_local,SRH.SC_20200901131900_EV
SC,SRH,BH,32.491798,-104.515404,1276,700,manual,0.11,68.4,2679.000044234097,manual,0.23,NA,NA,0.25,31.729,104.53916666666667,NA,145,NA,5,NA,1.99,ml,None,None,NA,84.6,181,18.33888417975185,5500,NA,earthquake_local,SRH.SC_20200901135800_EV
SC,SRH,BH,32.491798,-104.515404,1276,700,manual,0.3,36.12,2418.0000384002924,manual,0.33,NA,NA,0.5,31.7375,104.27583333333334,NA,277,NA,5,NA,1.81,ml,None,None,NA,86.9,164,7.634201105009496,5500,NA,earthquake_local,SRH.SC_20200901151300_EV
SC,SRH,BH,32.491798,-104.515404,1276,700,manual,0.3,62.99,2587.0000421777368,manual,0.49,NA,NA,0.5,32.0035,103.71866666666666,NA,244,NA,5,NA,1.67,ml,None,None,NA,92.6,126,10.646460677017004,5500,NA,earthquake_local,SRH.SC_20200901151500_EV
SC,SRH,BH,32.491798,-104.515404,1276,700,manual,0.07,65.15,2592.000042290427,manual,0.15,NA,NA,0.25,31.642333333333333,104.4815,NA,156,NA,5,NA,2.01,ml,None,None,NA,94.3,177,33.770412642689145,5500,NA,earthquake_local,SRH.SC_20200901185100_EV
SC,SRH,BH,32.491798,-104.515404,1276,700,manual,0.11,61.24,2627.000043070875,manual,0.23,NA,NA,0.25,31.66583333333333,104.45166666666667,NA,151,NA,5,NA,2.07,ml,None,None,NA,91.9,176,15.086256705379093,5500,NA,earthquake_local,SRH.SC_20200901195100_EV
SC,SRH,BH,32.491798,-104.515404,1276,700,manual,0.37,38.31,2486.000039920211,manual,0.62,NA,NA,0.25,32.060833333333335,103.68716666666667,NA,313,NA,5,NA,2.16,ml,None,None,NA,91.4,122,12.001511345550282,5500,NA,earthquake_local,SRH.SC_20200901200900_EV
SC,SRH,BH,32.491798,-104.515404,1276,700,manual,0.07,30.52,2286.000035450794,manual,0.17,NA,NA,0.5,31.9615,103.88616666666667,NA,177,NA,5,NA,1.77,ml,None,None,NA,83.7,135,10.314839685795542,5500,NA,earthquake_local,SRH.SC_20200901225500_EV
SC,SRH,BH,32.491798,-104.515404,1276,700,manual,0.11,86.06,2475.0000396743417,manual,0.23,NA,NA,0.25,31.74266666666667,104.51666666666667,NA,142,NA,5,NA,1.94,ml,None,None,NA,83.1,179,20.415936463499285,5500,NA,earthquake_local,SRH.SC_20200901225800_EV
SC,SRH,BH,32.491798,-104.515404,1276,700,manual,0.06,86.18,2628.000043094158,manual,0.11,NA,NA,0.25,31.741,104.0895,NA,115,NA,5,NA,2.27,ml,None,None,NA,92.8,154,0.09062302657166323,5500,NA,earthquake_local,SRH.SC_20200902013500_EV
