network_code,receiver_code,receiver_type,receiver_latitude,receiver_longitude,receiver_elevation_m,p_arrival_sample,p_status,p_weight,p_travel_sec,s_arrival_sample,s_status,s_weight,source_id,source_origin_time,source_origin_uncertainty_sec,source_latitude,source_longitude,source_error_sec,source_gap_deg,source_horizontal_uncertainty_km,source_depth_km,source_depth_uncertainty_km,source_magnitude,source_magnitude_type,source_magnitude_author,source_mechanism_strike_dip_rake,source_distance_deg,source_distance_km,back_azimuth_deg,snr_db,coda_end_sample,trace_start_time,trace_category,trace_name
SC,HTMS,BH,32.472599,-103.6343,1192,700,manual,0.14,67.52,2455.000039227307,manual,0.3,NA,NA,0.25,31.744333333333334,104.05483333333333,NA,131,NA,5,NA,1.95,ml,None,None,NA,89.3,205,2.7628916237079797,5500,NA,earthquake_local,HTMS.SC_20200902065600_EV
SC,HTMS,BH,32.472599,-103.6343,1192,700,manual,0.09,59.78,2414.0000383108854,manual,0.23,NA,NA,0.25,31.758,104.08616666666667,NA,113,NA,5,NA,1.97,ml,None,None,NA,89.2,207,4.810861334495071,5500,NA,earthquake_local,HTMS.SC_20200902085000_EV
SC,HTMS,BH,32.472599,-103.6343,1192,700,manual,0.22,86.75,2516.0000405912288,manual,0.47,NA,NA,0.25,31.758,104.05883333333334,NA,130,NA,5,NA,2.09,ml,None,None,NA,88.1,206,2.6660962790543548,5500,NA,earthquake_local,HTMS.SC_20200902095400_EV
SC,HTMS,BH,32.472599,-103.6343,1192,700,manual,0.03,34.55,2499.0000402107835,manual,0.07,NA,NA,0.25,31.768,104.10533333333333,NA,113,NA,5,NA,2.61,ml,None,None,NA,89.1,209,9.587501639284405,5500,NA,earthquake_local,HTMS.SC_20200902141300_EV
SC,JAL,BH,32.20241,-103.22932,1020,700,manual,0.04,86.42,2558.0000415295362,manual,0.11,NA,NA,0.25,31.741,104.0895,NA,115,NA,5,NA,2.27,ml,None,None,NA,94.6,237,3.922209001591972,5500,NA,earthquake_local,JAL.SC_20200902013500_EV
SC,JAL,BH,32.20241,-103.22932,1020,700,manual,0.05,75.29,2525.0000407919288,manual,0.1,NA,NA,0.25,31.754,104.09733333333334,NA,114,NA,5,NA,2.56,ml,None,None,NA,94.5,238,9.160261094317798,5500,NA,earthquake_local,JAL.SC_20200902050800_EV
SC,JAL,BH,32.20241,-103.22932,1020,700,manual,0.04,51.72,2443.000038959086,manual,0.12,NA,NA,0.25,31.750833333333333,104.086,NA,113,NA,5,NA,2.65,ml,None,None,NA,93.8,238,3.0615828592101275,5500,NA,earthquake_local,JAL.SC_20200902051800_EV
SC,JAL,BH,32.20241,-103.22932,1020,700,manual,0.05,49.63,2456.0000392496586,manual,0.12,NA,NA,0.25,31.749666666666666,104.08316666666667,NA,113,NA,5,NA,2.19,ml,None,None,NA,93.6,238,4.7773994579622325,5500,NA,earthquake_local,JAL.SC_20200902140400_EV
SC,JAL,BH,32.20241,-103.22932,1020,700,manual,0.04,35.25,2521.000040702522,manual,0.09,NA,NA,0.25,31.768,104.10533333333333,NA,113,NA,5,NA,2.61,ml,None,None,NA,94.3,239,8.4639749406808,5500,NA,earthquake_local,JAL.SC_20200902141300_EV
SC,JAL,BH,32.20241,-103.22932,1020,700,manual,0.05,50.31,2698.000044657849,manual,0.13,NA,NA,0.25,31.735333333333333,104.096,NA,116,NA,5,NA,2.31,ml,None,None,NA,95.4,237,5.63436824003885,5500,NA,earthquake_local,JAL.SC_20200902221700_EV
TX,MNHN,BH,31.340231,-102.761414,750,700,manual,0.08,84.45,2940.000050067436,manual,0.09,NA,NA,0.25,31.749333333333333,104.08533333333334,NA,113,NA,5,NA,2.17,ml,None,None,NA,132.8,290,20.35983157064891,5500,NA,earthquake_local,MNHN.TX_20200901060500_EV
TX,MNHN,BH,31.340231,-102.761414,750,700,manual,0.08,60.61,3242.000056817662,manual,0.09,NA,NA,0.25,31.615,104.29433333333333,NA,151,NA,5,NA,2.36,ml,None,None,NA,147.3,282,10.053505750049629,5500,NA,earthquake_local,MNHN.TX_20200901074800_EV
TX,MNHN,BH,31.340231,-102.761414,750,700,manual,0.07,76,3436.0000611543655,manual,0.12,NA,NA,0.25,31.642333333333333,104.4815,NA,156,NA,5,NA,2.01,ml,None,None,NA,165.1,282,10.523782969273686,5500,NA,earthquake_local,MNHN.TX_20200901185100_EV
TX,MNHN,BH,31.340231,-102.761414,750,700,manual,0.25,79.11,3039.000052280724,manual,0.28,NA,NA,0.25,31.752666666666666,104.0665,NA,111,NA,5,NA,1.71,ml,None,None,NA,131.2,290,13.026000698418137,5500,NA,earthquake_local,MNHN.TX_20200901231900_EV
TX,MNHN,BH,31.340231,-102.761414,750,700,manual,0.12,62.43,3509.000062786101,manual,0.23,NA,NA,0.25,31.721166666666665,104.40516666666667,NA,141,NA,5,NA,2.2,ml,None,None,NA,160.3,285,5.11521917593085,5500,NA,earthquake_local,MNHN.TX_20200902005900_EV
TX,MNHN,BH,31.340231,-102.761414,750,700,manual,0.09,80.97,3004.0000514981803,manual,0.09,NA,NA,0.25,31.754,104.09733333333334,NA,114,NA,5,NA,2.56,ml,None,None,NA,134,290,8.914096621076295,5500,NA,earthquake_local,MNHN.TX_20200902050800_EV
TX,MNHN,BH,31.340231,-102.761414,750,700,manual,0.06,57.29,3126.0000542250928,manual,0.04,NA,NA,0.25,31.750833333333333,104.086,NA,113,NA,5,NA,2.65,ml,None,None,NA,132.9,290,6.917142667553765,5500,NA,earthquake_local,MNHN.TX_20200902051800_EV
TX,MNHN,BH,31.340231,-102.761414,750,700,manual,0.11,50.49,2968.0000506937504,manual,0.19,NA,NA,0.25,31.719,104.0805,NA,116,NA,5,NA,2.05,ml,None,None,NA,131.2,289,1.3566879184366272,5500,NA,earthquake_local,MNHN.TX_20200902114500_EV
TX,MNHN,BH,31.340231,-102.761414,750,700,manual,0.09,75.82,3318.00005851686,manual,0.16,NA,NA,0.25,31.696833333333334,104.514,NA,149,NA,5,NA,2.29,ml,None,None,NA,169.5,284,11.95505516681332,5500,NA,earthquake_local,MNHN.TX_20200902115100_EV
TX,MNHN,BH,31.340231,-102.761414,750,700,manual,0.09,80.2,3093.000053487718,manual,0.19,NA,NA,0.25,31.752,104.08066666666667,NA,113,NA,5,NA,2.2,ml,None,None,NA,132.5,290,0.8196544024638084,5500,NA,earthquake_local,MNHN.TX_20200902131000_EV
TX,MNHN,BH,31.340231,-102.761414,750,700,manual,0.3,34.14,3130.0000543147326,manual,0.22,NA,NA,0.25,31.764666666666667,104.04433333333333,NA,140,NA,5,NA,2.29,ml,None,None,NA,129.8,291,3.0823917817717765,5500,NA,earthquake_local,MNHN.TX_20200902132600_EV
TX,MNHN,BH,31.340231,-102.761414,750,700,manual,0.17,78.78,2898.0000491291285,manual,0.35,NA,NA,0.25,31.754666666666665,104.05233333333334,NA,109,NA,5,NA,1.95,ml,None,None,NA,130.1,291,-4.729147704433022,5500,NA,earthquake_local,MNHN.TX_20200902134900_EV
TX,MNHN,BH,31.340231,-102.761414,750,700,manual,0.06,55.15,2961.000050537288,manual,0.12,NA,NA,0.25,31.749666666666666,104.08316666666667,NA,113,NA,5,NA,2.19,ml,None,None,NA,132.6,290,-1.6840595981970972,5500,NA,earthquake_local,MNHN.TX_20200902140400_EV
TX,MNHN,BH,31.340231,-102.761414,750,700,manual,0.05,40.87,3110.0000538676977,manual,0.1,NA,NA,0.25,31.768,104.10533333333333,NA,113,NA,5,NA,2.61,ml,None,None,NA,135.3,291,0.8410486688442503,5500,NA,earthquake_local,MNHN.TX_20200902141300_EV
TX,MNHN,BH,31.340231,-102.761414,750,700,manual,0.09,62.19,3441.0000612661242,manual,0.16,NA,NA,0.25,31.709833333333332,104.3605,NA,140,NA,5,NA,2.13,ml,None,None,NA,155.9,285,5.692336065979088,5500,NA,earthquake_local,MNHN.TX_20200902165300_EV
TX,MNHN,BH,31.340231,-102.761414,750,700,manual,0.19,74.2,2934.000049933791,manual,0.35,NA,NA,0.25,31.745333333333335,104.084,NA,114,NA,5,NA,2.1,ml,None,None,NA,132.5,290,12.03311651098786,5500,NA,earthquake_local,MNHN.TX_20200902204500_EV
TX,MNHN,BH,31.340231,-102.761414,750,700,manual,0.06,57.25,3091.0000534430146,manual,0.11,NA,NA,0.25,31.735333333333333,104.096,NA,116,NA,5,NA,2.31,ml,None,None,NA,133.2,289,14.02776870279208,5500,NA,earthquake_local,MNHN.TX_20200902221700_EV
TX,ODSA,BH,32.12009,-102.549133,943,700,manual,0.05,66.16,3467.000061847735,manual,0.08,NA,NA,0.25,31.615,104.29433333333333,NA,151,NA,5,NA,2.36,ml,None,None,NA,171.6,251,1.4967496034932972,5500,NA,earthquake_local,ODSA.TX_20200901074800_EV
TX,ODSA,BH,32.12009,-102.549133,943,700,manual,0.04,60.4,3222.00005637086,manual,0.03,NA,NA,0.25,31.750833333333333,104.086,NA,113,NA,5,NA,2.65,ml,None,None,NA,148.7,254,10.732241646897759,5500,NA,earthquake_local,ODSA.TX_20200902051800_EV
TX,ODSA,BH,32.12009,-102.549133,943,700,manual,0.03,43.82,3170.000055208802,manual,0.04,NA,NA,0.25,31.768,104.10533333333333,NA,113,NA,5,NA,2.61,ml,None,None,NA,149.9,255,4.952664585549508,5500,NA,earthquake_local,ODSA.TX_20200902141300_EV
TX,PB07,BH,31.57935,-103.66793,856,700,manual,0.37,36.82,2013.000029347837,manual,0.22,NA,NA,0.25,31.5965,104.12483333333333,NA,139,NA,5,NA,2.21,ml,None,None,NA,42.9,273,9.65553812471137,5500,NA,earthquake_local,PB07.TX_20200901032600_EV
TX,PB07,BH,31.57935,-103.66793,856,700,manual,0.15,70.57,1797.0000245198607,manual,0.14,NA,NA,0.25,31.749333333333333,104.08533333333334,NA,113,NA,5,NA,2.17,ml,None,None,NA,43.6,296,1.396098772538702,5500,NA,earthquake_local,PB07.TX_20200901060500_EV
TX,PB07,BH,31.57935,-103.66793,856,700,manual,0.17,82.21,2258.0000348240137,manual,0.52,NA,NA,0.25,31.216,103.33833333333334,NA,213,NA,5,NA,1.66,ml,None,None,NA,51.2,142,11.60496468830214,5500,NA,earthquake_local,PB07.TX_20200901064900_EV
TX,PB07,BH,31.57935,-103.66793,856,700,manual,0.09,27.12,1928.000027447939,manual,0.37,NA,NA,0.5,31.755166666666668,104.05983333333333,NA,110,NA,5,NA,1.8,ml,None,None,NA,41.8,298,0.46355365162575296,5500,NA,earthquake_local,PB07.TX_20200901095900_EV
TX,PB07,BH,31.57935,-103.66793,856,700,manual,0.06,64.53,2107.000031449832,manual,0.2,NA,NA,0.5,31.642333333333333,104.4815,NA,156,NA,5,NA,2.01,ml,None,None,NA,76.6,275,5.221031468104227,5500,NA,earthquake_local,PB07.TX_20200901185100_EV
TX,PB07,BH,31.57935,-103.66793,856,700,manual,0.12,83.7,2296.0000356752425,manual,0.22,NA,NA,0.25,31.728666666666665,104.38766666666666,NA,139,NA,5,NA,2.13,ml,None,None,NA,69.6,284,8.301959841171659,5500,NA,earthquake_local,PB07.TX_20200901234300_EV
TX,PB07,BH,31.57935,-103.66793,856,700,manual,0.34,78.71,1928.000027447939,manual,0.19,NA,NA,0,31.741,104.0895,NA,115,NA,5,NA,2.27,ml,None,None,NA,43.6,294,3.0570837973245677,5500,NA,earthquake_local,PB07.TX_20200902013500_EV
TX,PB07,BH,31.57935,-103.66793,856,700,manual,0.17,67.21,1759.0000236704946,manual,0.15,NA,NA,0.25,31.754,104.09733333333334,NA,114,NA,5,NA,2.56,ml,None,None,NA,44.9,296,9.94922490974666,5500,NA,earthquake_local,PB07.TX_20200902050800_EV
TX,PB07,BH,31.57935,-103.66793,856,700,manual,0.12,43.67,1938.0000276714563,manual,0.21,NA,NA,0.25,31.750833333333333,104.086,NA,113,NA,5,NA,2.65,ml,None,None,NA,43.8,296,4.928916633815636,5500,NA,earthquake_local,PB07.TX_20200902051800_EV
TX,PB07,BH,31.57935,-103.66793,856,700,manual,0.07,79.45,2027.0000296607614,manual,0.28,NA,NA,0.5,31.671,104.21433333333333,NA,136,NA,5,NA,1.02,ml,None,None,NA,52.3,281,-1.6568228630104365,5500,NA,earthquake_local,PB07.TX_20200902053800_EV
TX,PB07,BH,31.57935,-103.66793,856,700,manual,0.16,88.5,1788.000024318695,manual,0.08,NA,NA,0.25,31.761,104.081,NA,112,NA,5,NA,2.46,ml,None,None,NA,43.9,297,2.2713980003211494,5500,NA,earthquake_local,PB07.TX_20200902070200_EV
TX,PB07,BH,31.57935,-103.66793,856,700,manual,0.21,51.7,1841.0000255033374,manual,0.39,NA,NA,0.25,31.758,104.08616666666667,NA,113,NA,5,NA,1.97,ml,None,None,NA,44.1,297,4.752925072484204,5500,NA,earthquake_local,PB07.TX_20200902085000_EV
TX,PB07,BH,31.57935,-103.66793,856,700,manual,0.08,61.08,2393.000037841499,manual,0.13,NA,NA,0.5,31.696833333333334,104.514,NA,149,NA,5,NA,2.29,ml,None,None,NA,80.4,279,6.2101833998577485,5500,NA,earthquake_local,PB07.TX_20200902115100_EV
TX,PB07,BH,31.57935,-103.66793,856,700,manual,0.12,41.38,1890.0000265985727,manual,0.22,NA,NA,0.25,31.749666666666666,104.08316666666667,NA,113,NA,5,NA,2.19,ml,None,None,NA,43.5,296,7.101612720245876,5500,NA,earthquake_local,PB07.TX_20200902140400_EV
TX,PB07,BH,31.57935,-103.66793,856,700,manual,0.11,27.35,2060.000030398369,manual,0.19,NA,NA,0.25,31.768,104.10533333333333,NA,113,NA,5,NA,2.61,ml,None,None,NA,46.3,297,4.404347479400549,5500,NA,earthquake_local,PB07.TX_20200902141300_EV
TX,PB07,BH,31.57935,-103.66793,856,700,manual,0.12,43.16,1986.00002874434,manual,0.21,NA,NA,0.25,31.735333333333333,104.096,NA,116,NA,5,NA,2.31,ml,None,None,NA,43.9,293,3.2881723310129845,5500,NA,earthquake_local,PB07.TX_20200902221700_EV
TX,PB11,BH,31.93553,-104.034119,915,700,manual,0.11,66.88,1735.0000231340528,manual,0.24,NA,NA,0.25,31.749333333333333,104.08533333333334,NA,113,NA,5,NA,2.17,ml,None,None,NA,21.1,192,7.045169892729182,5500,NA,earthquake_local,PB11.TX_20200901060500_EV
TX,PB11,BH,31.93553,-104.034119,915,700,manual,0.09,43.55,2102.000031337142,manual,0.26,NA,NA,0.25,31.615,104.29433333333333,NA,151,NA,5,NA,2.36,ml,None,None,NA,42.8,214,6.683140238549447,5500,NA,earthquake_local,PB11.TX_20200901074800_EV
TX,PB11,BH,31.93553,-104.034119,915,700,manual,0.11,23.76,1737.0000231782906,manual,0.22,NA,NA,0.25,31.755166666666668,104.05983333333333,NA,110,NA,5,NA,1.8,ml,None,None,NA,20.1,186,4.499480576959769,5500,NA,earthquake_local,PB11.TX_20200901095900_EV
TX,PB11,BH,31.93553,-104.034119,915,700,manual,0.09,40.37,1753.000023536384,manual,0.22,NA,NA,0.25,31.7275,104.1175,NA,119,NA,5,NA,2.2,ml,None,None,NA,24.3,198,8.42859586804117,5500,NA,earthquake_local,PB11.TX_20200901103700_EV
TX,PB11,BH,31.93553,-104.034119,915,700,manual,0.1,47.74,1867.0000260844827,manual,0.26,NA,NA,0.25,31.66433333333333,104.18716666666667,NA,134,NA,5,NA,2.13,ml,None,None,NA,33.1,205,2.2734551076751197,5500,NA,earthquake_local,PB11.TX_20200901131900_EV
TX,PB11,BH,31.93553,-104.034119,915,700,manual,0.04,58.46,2125.000031851232,manual,0.19,NA,NA,0.5,31.642333333333333,104.4815,NA,156,NA,5,NA,2.01,ml,None,None,NA,52.7,232,6.102067788944528,5500,NA,earthquake_local,PB11.TX_20200901185100_EV
TX,PB11,BH,31.93553,-104.034119,915,700,manual,0.23,61.69,1717.0000227317214,manual,0.51,NA,NA,0.25,31.752666666666666,104.0665,NA,111,NA,5,NA,1.71,ml,None,None,NA,20.5,188,7.227222971080129,5500,NA,earthquake_local,PB11.TX_20200901231900_EV
TX,PB11,BH,31.93553,-104.034119,915,700,manual,0.06,74.75,1726.000022932887,manual,0.13,NA,NA,0.25,31.741,104.0895,NA,115,NA,5,NA,2.27,ml,None,None,NA,22.1,193,5.40032966286774,5500,NA,earthquake_local,PB11.TX_20200902013500_EV
TX,PB11,BH,31.93553,-104.034119,915,700,manual,0.06,63.27,1731.0000230446458,manual,0.13,NA,NA,0.25,31.754,104.09733333333334,NA,114,NA,5,NA,2.56,ml,None,None,NA,20.9,196,8.784085841948055,5500,NA,earthquake_local,PB11.TX_20200902050800_EV
TX,PB11,BH,31.93553,-104.034119,915,700,manual,0.06,39.82,1719.000022776192,manual,0.13,NA,NA,0.25,31.750833333333333,104.086,NA,113,NA,5,NA,2.65,ml,None,None,NA,21,193,5.537965974754517,5500,NA,earthquake_local,PB11.TX_20200902051800_EV
TX,PB11,BH,31.93553,-104.034119,915,700,manual,0.08,75.66,1878.000026330119,manual,0.23,NA,NA,0.5,31.671,104.21433333333333,NA,136,NA,5,NA,1.02,ml,None,None,NA,33.6,209,2.307583092737671,5500,NA,earthquake_local,PB11.TX_20200902053800_EV
TX,PB11,BH,31.93553,-104.034119,915,700,manual,0.14,55.34,1751.0000234916806,manual,0.28,NA,NA,0.25,31.744333333333334,104.05483333333333,NA,131,NA,5,NA,1.95,ml,None,None,NA,21.3,184,5.60956951350121,5500,NA,earthquake_local,PB11.TX_20200902065600_EV
TX,PB11,BH,31.93553,-104.034119,915,700,manual,0.06,84.68,1630.0000207871199,manual,0.06,NA,NA,0.25,31.761,104.081,NA,112,NA,5,NA,2.46,ml,None,None,NA,19.8,192,5.0417572001387505,5500,NA,earthquake_local,PB11.TX_20200902070200_EV
TX,PB11,BH,31.93553,-104.034119,915,700,manual,0.3,44.5,1848.0000256597996,manual,0.31,NA,NA,0.25,31.6965,104.15066666666667,NA,126,NA,5,NA,1.7,ml,None,None,NA,28.5,202,4.789949687470569,5500,NA,earthquake_local,PB11.TX_20200902071900_EV
TX,PB11,BH,31.93553,-104.034119,915,700,manual,0.12,47.43,1722.00002284348,manual,0.31,NA,NA,0.25,31.758,104.08616666666667,NA,113,NA,5,NA,1.97,ml,None,None,NA,20.2,193,4.656343935542739,5500,NA,earthquake_local,PB11.TX_20200902085000_EV
TX,PB11,BH,31.93553,-104.034119,915,700,manual,0.2,21.45,1990.000028833747,manual,0.81,NA,NA,0.5,31.7145,104.08366666666667,NA,141,NA,5,NA,1.11,ml,None,None,NA,24.9,190,4.990955172312489,5500,NA,earthquake_local,PB11.TX_20200902085800_EV
TX,PB11,BH,31.93553,-104.034119,915,700,manual,0.1,56.48,2104.000031380914,manual,0.21,NA,NA,0.25,31.696833333333334,104.514,NA,149,NA,5,NA,2.29,ml,None,None,NA,51.8,239,5.318009773669109,5500,NA,earthquake_local,PB11.TX_20200902115100_EV
TX,PB11,BH,31.93553,-104.034119,915,700,manual,0.15,24.88,1784.0000242302194,manual,0.37,NA,NA,0.25,31.6445,104.27433333333333,NA,145,NA,5,NA,2.18,ml,None,None,NA,39.1,214,3.3824741333635497,5500,NA,earthquake_local,PB11.TX_20200902121600_EV
TX,PB11,BH,31.93553,-104.034119,915,700,manual,0.14,62.33,1733.0000230893493,manual,0.33,NA,NA,0.25,31.752,104.08066666666667,NA,113,NA,5,NA,2.2,ml,None,None,NA,20.7,191,4.110559048008542,5500,NA,earthquake_local,PB11.TX_20200902131000_EV
TX,PB11,BH,31.93553,-104.034119,915,700,manual,0.13,61.28,1689.0000221058726,manual,0.28,NA,NA,0.5,31.754666666666665,104.05233333333334,NA,109,NA,5,NA,1.95,ml,None,None,NA,20.1,184,5.409870610638116,5500,NA,earthquake_local,PB11.TX_20200902134900_EV
TX,PB11,BH,31.93553,-104.034119,915,700,manual,0.07,37.47,1701.0000223740935,manual,0.14,NA,NA,0.25,31.749666666666666,104.08316666666667,NA,113,NA,5,NA,2.19,ml,None,None,NA,21.1,192,3.7028027747461607,5500,NA,earthquake_local,PB11.TX_20200902140400_EV
TX,PB11,BH,31.93553,-104.034119,915,700,manual,0.05,23.28,1724.0000228881836,manual,0.11,NA,NA,0.25,31.768,104.10533333333333,NA,113,NA,5,NA,2.61,ml,None,None,NA,19.6,199,5.93766054705614,5500,NA,earthquake_local,PB11.TX_20200902141300_EV
TX,PB11,BH,31.93553,-104.034119,915,700,manual,0.1,72.52,1724.000022889115,manual,0.2,NA,NA,0.25,31.739,104.07433333333333,NA,113,NA,5,NA,2.08,ml,None,None,NA,22.1,189,4.245826490565173,5500,NA,earthquake_local,PB11.TX_20200902160000_EV
TX,PB11,BH,31.93553,-104.034119,915,700,manual,0.04,44.61,1869.0000261291862,manual,0.21,NA,NA,0.5,31.709833333333332,104.3605,NA,140,NA,5,NA,2.13,ml,None,None,NA,39.2,230,3.303968523099814,5500,NA,earthquake_local,PB11.TX_20200902165300_EV
TX,PB11,BH,31.93553,-104.034119,915,700,manual,0.19,37.32,1939.000027693808,manual,0.47,NA,NA,0.25,31.618166666666667,104.20383333333334,NA,143,NA,5,NA,2.06,ml,None,None,NA,38.4,204,4.481120322071832,5500,NA,earthquake_local,PB11.TX_20200902180300_EV
TX,PB11,BH,31.93553,-104.034119,915,700,manual,0.12,56.03,1726.000022932887,manual,0.26,NA,NA,0.25,31.745333333333335,104.084,NA,114,NA,5,NA,2.1,ml,None,None,NA,21.5,192,4.146875060495143,5500,NA,earthquake_local,PB11.TX_20200902204500_EV
TX,PB11,BH,31.93553,-104.034119,915,700,manual,0.07,39.6,1731.0000230437145,manual,0.16,NA,NA,0.25,31.735333333333333,104.096,NA,116,NA,5,NA,2.31,ml,None,None,NA,22.9,194,4.4599728291956096,5500,NA,earthquake_local,PB11.TX_20200902221700_EV
TX,PB11,BH,31.93553,-104.034119,915,700,manual,0.08,81.94,1715.000022687018,manual,0.17,NA,NA,0.25,31.729333333333333,104.08566666666667,NA,116,NA,5,NA,2.23,ml,None,None,NA,23.3,191,3.5638899796024903,5500,NA,earthquake_local,PB11.TX_20200902230600_EV
SC,PDB,BH,32.0722,-103.59662,1025,700,manual,0.05,81.01,2129.000031940639,manual,0.13,NA,NA,0.25,31.741,104.0895,NA,115,NA,5,NA,2.27,ml,None,None,NA,58.5,231,4.359758654988992,5500,NA,earthquake_local,PDB.SC_20200902013500_EV
SC,PDB,BH,32.0722,-103.59662,1025,700,manual,0.05,69.35,2173.0000329243485,manual,0.12,NA,NA,0.25,31.754,104.09733333333334,NA,114,NA,5,NA,2.56,ml,None,None,NA,58.2,233,2.568314323021295,5500,NA,earthquake_local,PDB.SC_20200902050800_EV
SC,PDB,BH,32.0722,-103.59662,1025,700,manual,0.05,46.09,2151.0000324321445,manual,0.14,NA,NA,0.25,31.750833333333333,104.086,NA,113,NA,5,NA,2.65,ml,None,None,NA,57.6,232,4.802217073098044,5500,NA,earthquake_local,PDB.SC_20200902051800_EV
SC,PDB,BH,32.0722,-103.59662,1025,700,manual,0.06,90.79,2159.0000326111913,manual,0.15,NA,NA,0.25,31.761,104.081,NA,112,NA,5,NA,2.46,ml,None,None,NA,56.5,232,3.304514171741713,5500,NA,earthquake_local,PDB.SC_20200902070200_EV
SC,PDB,BH,32.0722,-103.59662,1025,700,manual,0.11,37.89,2313.000036052428,manual,0.29,NA,NA,0.25,31.719,104.0805,NA,116,NA,5,NA,2.05,ml,None,None,NA,59.4,229,3.938339202701619,5500,NA,earthquake_local,PDB.SC_20200902114500_EV
SC,PDB,BH,32.0722,-103.59662,1025,700,manual,0.04,29.71,2154.0000324994326,manual,0.11,NA,NA,0.25,31.768,104.10533333333333,NA,113,NA,5,NA,2.61,ml,None,None,NA,57.9,234,2.8437411855870165,5500,NA,earthquake_local,PDB.SC_20200902141300_EV
