network_code,receiver_code,receiver_type,receiver_latitude,receiver_longitude,receiver_elevation_m,p_arrival_sample,p_status,p_weight,p_travel_sec,s_arrival_sample,s_status,s_weight,source_id,source_origin_time,source_origin_uncertainty_sec,source_latitude,source_longitude,source_error_sec,source_gap_deg,source_horizontal_uncertainty_km,source_depth_km,source_depth_uncertainty_km,source_magnitude,source_magnitude_type,source_magnitude_author,source_mechanism_strike_dip_rake,source_distance_deg,source_distance_km,back_azimuth_deg,snr_db,coda_end_sample,trace_start_time,trace_category,trace_name
SC,SRH,BH,32.491798,-104.515404,1276,700,manual,0.09,30.52,2629.0000431163935,manual,0.18,NA,NA,0.5,31.621,104.14966666666666,NA,153,NA,5,NA,1.9,ml,None,None,NA,102.9,160,5.812052521521528,5500,NA,earthquake_local,SRH.SC_20200902023700_EV
SC,SRH,BH,32.491798,-104.515404,1276,700,manual,0.11,33.25,2532.000040948391,manual,0.22,NA,NA,0.25,31.740833333333335,104.36416666666666,NA,136,NA,5,NA,2.24,ml,None,None,NA,84.7,170,4.7572725981541275,5499.999999999884,NA,earthquake_local,SRH.SC_20200902025400_EV
SC,SRH,BH,32.491798,-104.515404,1276,700,manual,0.11,57.05,2514.0000405460596,manual,0.22,NA,NA,0.25,31.7045,104.32533333333333,NA,139,NA,5,NA,2.27,ml,None,None,NA,89.3,168,0.4784483548003887,5500,NA,earthquake_local,SRH.SC_20200902032100_EV
SC,SRH,BH,32.491798,-104.515404,1276,700,manual,0.18,66.18,2487.0000399423297,manual,0.17,NA,NA,0.5,31.9935,103.73,NA,242,NA,5,NA,1.75,ml,None,None,NA,92.4,127,3.939555806116746,5500,NA,earthquake_local,SRH.SC_20200902035400_EV
SC,SRH,BH,32.491798,-104.515404,1276,700,manual,0.06,37.51,2598.000042423606,manual,0.24,NA,NA,0.5,31.676166666666667,104.52433333333333,NA,153,NA,5,NA,1.67,ml,None,None,NA,90.5,180,2.57884708346582,5500,NA,earthquake_local,SRH.SC_20200902042000_EV
SC,SRH,BH,32.491798,-104.515404,1276,700,manual,0.06,6.96,2736.000045508379,manual,0.21,NA,NA,0.75,31.655333333333335,104.50133333333333,NA,155,NA,5,NA,1.89,ml,None,None,NA,92.8,179,-0.7726074827077806,5500,NA,earthquake_local,SRH.SC_20200902042200_EV
SC,SRH,BH,32.491798,-104.515404,1276,700,manual,0.06,74.31,2471.0000395849347,manual,0.11,NA,NA,0.25,31.754,104.09733333333334,NA,114,NA,5,NA,2.56,ml,None,None,NA,91.1,154,5.699360571224076,5500,NA,earthquake_local,SRH.SC_20200902050800_EV
SC,SRH,BH,32.491798,-104.515404,1276,700,manual,0.06,50.76,2566.00004170835,manual,0.06,NA,NA,0.25,31.750833333333333,104.086,NA,113,NA,5,NA,2.65,ml,None,None,NA,91.9,153,4.228079265258656,5500,NA,earthquake_local,SRH.SC_20200902051800_EV
SC,SRH,BH,32.491798,-104.515404,1276,700,manual,0.09,86.59,2544.000041216379,manual,0.17,NA,NA,0.25,31.671,104.21433333333333,NA,136,NA,5,NA,1.02,ml,None,None,NA,95.6,162,5.504503663664103,5500,NA,earthquake_local,SRH.SC_20200902053800_EV
SC,SRH,BH,32.491798,-104.515404,1276,700,manual,0.07,68.19,2463.000039406121,manual,0.13,NA,NA,0.25,31.744333333333334,104.05483333333333,NA,131,NA,5,NA,1.95,ml,None,None,NA,93.9,152,1.218035434071458,5500,NA,earthquake_local,SRH.SC_20200902065600_EV
SC,SRH,BH,32.491798,-104.515404,1276,700,manual,0.04,59.83,2337.0000365898013,manual,0.09,NA,NA,0.75,31.670833333333334,104.46666666666667,NA,151,NA,5,NA,1.96,ml,None,None,NA,91.3,176,4.718745673190012,5500,NA,earthquake_local,SRH.SC_20200902083000_EV
SC,SRH,BH,32.491798,-104.515404,1276,700,manual,0.07,42.01,2374.0000374172814,manual,0.24,NA,NA,0.5,31.704,104.525,NA,148,NA,5,NA,1.83,ml,None,None,NA,87.4,180,4.373656540371092,5500,NA,earthquake_local,SRH.SC_20200902083600_EV
SC,SRH,BH,32.491798,-104.515404,1276,700,manual,0.07,59.5,2201.0000335499644,manual,0.13,NA,NA,0.25,31.758,104.08616666666667,NA,113,NA,5,NA,1.97,ml,None,None,NA,91.2,153,4.1448037781981855,5500,NA,earthquake_local,SRH.SC_20200902085000_EV
SC,SRH,BH,32.491798,-104.515404,1276,700,manual,0.09,87.26,2438.0000388468616,manual,0.16,NA,NA,0.25,31.758,104.05883333333334,NA,130,NA,5,NA,2.09,ml,None,None,NA,92.4,152,0.4205622138896521,5500,NA,earthquake_local,SRH.SC_20200902095400_EV
SC,SRH,BH,32.491798,-104.515404,1276,700,manual,0.08,84.78,2397.0000379313715,manual,0.16,NA,NA,0.25,31.6895,104.39833333333333,NA,145,NA,5,NA,2.05,ml,None,None,NA,89.8,172,5.426562396328476,5500,NA,earthquake_local,SRH.SC_20200902101300_EV
SC,SRH,BH,32.491798,-104.515404,1276,700,manual,0.08,62.82,2412.000038266182,manual,0.17,NA,NA,0.25,31.696833333333334,104.514,NA,149,NA,5,NA,2.29,ml,None,None,NA,88.2,179,6.987063574049108,5500,NA,earthquake_local,SRH.SC_20200902115100_EV
SC,SRH,BH,32.491798,-104.515404,1276,700,manual,0.05,33.92,2471.0000395840034,manual,0.09,NA,NA,0.5,31.6445,104.27433333333333,NA,145,NA,5,NA,2.18,ml,None,None,NA,96.9,166,0.8197961813049557,5500,NA,earthquake_local,SRH.SC_20200902121600_EV
SC,SRH,BH,32.491798,-104.515404,1276,700,manual,0.08,74.13,2312.0000360310078,manual,0.14,NA,NA,0.25,31.752,104.08066666666667,NA,113,NA,5,NA,2.2,ml,None,None,NA,92,153,3.865779543085015,5500,NA,earthquake_local,SRH.SC_20200902131000_EV
SC,SRH,BH,32.491798,-104.515404,1276,700,manual,0.13,28.61,2536.000041037798,manual,0.23,NA,NA,0.25,31.764666666666667,104.04433333333333,NA,140,NA,5,NA,2.29,ml,None,None,NA,92.4,151,2.759330244363741,5500,NA,earthquake_local,SRH.SC_20200902132600_EV
SC,SRH,BH,32.491798,-104.515404,1276,700,manual,0.06,34.3,2527.0000408366323,manual,0.11,NA,NA,0.25,31.768,104.10533333333333,NA,113,NA,5,NA,2.61,ml,None,None,NA,89.4,154,8.288981624517612,5500,NA,earthquake_local,SRH.SC_20200902141300_EV
SC,SRH,BH,32.491798,-104.515404,1276,700,manual,0.04,84.95,2236.0000343322754,manual,0.07,NA,NA,0.5,31.739,104.07433333333333,NA,113,NA,5,NA,2.08,ml,None,None,NA,93.6,153,1.468088157712809,5500,NA,earthquake_local,SRH.SC_20200902160000_EV
SC,SRH,BH,32.491798,-104.515404,1276,700,manual,0.09,82.96,2440.0000388920307,manual,0.1,NA,NA,0.25,31.983666666666668,103.78783333333334,NA,142,NA,5,NA,2.11,ml,None,None,NA,88.8,129,8.281273145864388,5500,NA,earthquake_local,SRH.SC_20200902163100_EV
SC,SRH,BH,32.491798,-104.515404,1276,700,manual,0.07,51.81,2470.0000395635143,manual,0.13,NA,NA,0.25,31.709833333333332,104.3605,NA,140,NA,5,NA,2.13,ml,None,None,NA,88.1,170,4.775536421757253,5500,NA,earthquake_local,SRH.SC_20200902165300_EV
SC,SRH,BH,32.491798,-104.515404,1276,700,manual,0.1,63.83,2349.000036858022,manual,0.1,NA,NA,0.25,31.706666666666667,104.354,NA,140,NA,5,NA,2.04,ml,None,None,NA,88.6,170,11.102557632117056,5500,NA,earthquake_local,SRH.SC_20200902174900_EV
SC,SRH,BH,32.491798,-104.515404,1276,700,manual,0.32,38,2648.000043541193,manual,0.3,NA,NA,0.25,31.613833333333332,104.15333333333334,NA,292,NA,5,NA,1.97,ml,None,None,NA,103.5,160,6.348648910738271,5500,NA,earthquake_local,SRH.SC_20200902194000_EV
SC,SRH,BH,32.491798,-104.515404,1276,700,manual,0.13,60.71,2667.000043965876,manual,0.25,NA,NA,0.25,31.625666666666667,104.1765,NA,149,NA,5,NA,2.03,ml,None,None,NA,101.5,161,5.0612902525705605,5500,NA,earthquake_local,SRH.SC_20200902194200_EV
SC,SRH,BH,32.491798,-104.515404,1276,700,manual,0.07,68.61,2362.0000371476635,manual,0.07,NA,NA,0.25,31.745333333333335,104.084,NA,114,NA,5,NA,2.1,ml,None,None,NA,92.5,153,5.686186493133426,5500,NA,earthquake_local,SRH.SC_20200902204500_EV
SC,SRH,BH,32.491798,-104.515404,1276,700,manual,0.07,47.87,2690.0000444808975,manual,0.14,NA,NA,0.25,31.629666666666665,103.928,NA,105,NA,5,NA,1.92,ml,None,None,NA,110.9,150,3.459996825475786,5500,NA,earthquake_local,SRH.SC_20200902213400_EV
SC,SRH,BH,32.491798,-104.515404,1276,700,manual,0.07,50.51,2661.0000438317657,manual,0.11,NA,NA,0.25,31.735333333333333,104.096,NA,116,NA,5,NA,2.31,ml,None,None,NA,93,154,7.083060387902673,5500,NA,earthquake_local,SRH.SC_20200902221700_EV
SC,SSS,BH,32.355099,-103.398598,1072,700,manual,0.04,75.05,2746.0000457316637,manual,0.05,NA,NA,0.25,31.754,104.09733333333334,NA,114,NA,5,NA,2.56,ml,None,None,NA,92.7,224,5.4157628957446,5500,NA,earthquake_local,SSS.SC_20200902050800_EV
SC,SSS,BH,32.355099,-103.398598,1072,700,manual,0.04,51.55,2233.000034265453,manual,0.03,NA,NA,0.25,31.750833333333333,104.086,NA,113,NA,5,NA,2.65,ml,None,None,NA,92.2,223,4.002442297573223,5500,NA,earthquake_local,SSS.SC_20200902051800_EV
SC,SSS,BH,32.355099,-103.398598,1072,700,manual,0.03,35.1,2496.0000401437283,manual,0.08,NA,NA,0.25,31.768,104.10533333333333,NA,113,NA,5,NA,2.61,ml,None,None,NA,92.1,225,3.885381726786382,5500,NA,earthquake_local,SSS.SC_20200902141300_EV
